SAUDISAT 1C             
1 27607U 02058C   22354.54249189  .00001646  00000+0  24370-3 0  9990
2 27607  64.5550  92.3021 0080619 259.1896 100.0125 14.76500701 76058
SAUDISAT 2              
1 28371U 04025F   22354.15074814  .00000440  00000+0  11350-3 0  9998
2 28371  98.4048 311.5192 0024418 253.6288 106.2194 14.54677018980284
SAUDISAT 3              
1 31118U 07012B   22354.41568909  .00000397  00000+0  75189-4 0  9994
2 31118  97.9931 297.1784 0014374 328.4295  31.6047 14.69441776840466
PISAT                   
1 41784U 16059B   22354.11040194  .00000964  00000+0  19102-3 0  9995
2 41784  97.8935  30.0303 0030444 303.7094  56.1208 14.64156690332852
FLYING LAPTOP           
1 42831U 17042G   22353.70313885  .00001245  00000+0  12706-3 0  9992
2 42831  97.4000 197.2176 0015032 105.3856 254.9054 14.92214626295712
SALSAT                  
1 46495U 20068K   22353.80270576  .00004418  00000+0  31064-3 0  9997
2 46495  97.7493 295.4499 0016671  14.1127 346.0562 15.05508557122066
